start=new Date('2022-05-07T00:00:00.000Z').valueOf();
sats=[{"CENTER_NAME":"EARTH","MEAN_MOTION":"15.06397461","SEMIMAJOR_AXIS":"6925.356","GP_ID":"202872256","ECCENTRICITY":"0.00016870","OBJECT_TYPE":"PAYLOAD","MEAN_ANOMALY":"289.5342","FILE":"3432551","ELEMENT_SET_NO":"999","SITE":"AFETR","TLE_LINE2":"2 48460  53.0560   4.3817 0001687  70.5829 289.5342 15.06397461 55611","EPOCH":"2022-05-06T19:32:38.472288","REF_FRAME":"TEME","REV_AT_EPOCH":"5561","COUNTRY_CODE":"US","DECAY_DATE":null,"ARG_OF_PERICENTER":"70.5829","PERIAPSIS":"546.053","MEAN_ELEMENT_THEORY":"SGP4","APOAPSIS":"548.390","TIME_SYSTEM":"UTC","MEAN_MOTION_DOT":"-0.00000072","MEAN_MOTION_DDOT":"0.0000000000000","NORAD_CAT_ID":"48460","OBJECT_ID":"2021-040AJ","TLE_LINE1":"1 48460U 21040AJ  22126.81433417 -.00000072  00000-0  14085-4 0  9995","BSTAR":"0.00001408500000","RA_OF_ASC_NODE":"4.3817","LAUNCH_DATE":"2021-05-09","RCS_SIZE":"LARGE","CLASSIFICATION_TYPE":"U","OBJECT_NAME":"STARLINK-2582","EPHEMERIS_TYPE":"0","PERIOD":"95.592","INCLINATION":"53.0560"},{"REV_AT_EPOCH":"5505","COUNTRY_CODE":"US","DECAY_DATE":null,"ARG_OF_PERICENTER":"56.1387","PERIAPSIS":"545.985","MEAN_ELEMENT_THEORY":"SGP4","TIME_SYSTEM":"UTC","APOAPSIS":"548.485","MEAN_MOTION_DOT":"-0.00000508","MEAN_MOTION_DDOT":"0.0000000000000","OBJECT_ID":"2021-040AK","NORAD_CAT_ID":"48461","TLE_LINE1":"1 48461U 21040AK  22126.36465640 -.00000508  00000-0 -15175-4 0  9995","BSTAR":"-0.00001517500000","RA_OF_ASC_NODE":"6.3931","LAUNCH_DATE":"2021-05-09","CLASSIFICATION_TYPE":"U","RCS_SIZE":"LARGE","OBJECT_NAME":"STARLINK-2693","EPHEMERIS_TYPE":"0","PERIOD":"95.593","INCLINATION":"53.0567","CENTER_NAME":"EARTH","MEAN_MOTION":"15.06392960","SEMIMAJOR_AXIS":"6925.370","GP_ID":"202860833","ECCENTRICITY":"0.00018050","OBJECT_TYPE":"PAYLOAD","MEAN_ANOMALY":"303.9774","FILE":"3432208","ELEMENT_SET_NO":"999","SITE":"AFETR","EPOCH":"2022-05-06T08:45:06.312960","TLE_LINE2":"2 48461  53.0567   6.3931 0001805  56.1387 303.9774 15.06392960 55056","REF_FRAME":"TEME"},{"REF_FRAME":"TEME","EPOCH":"2022-05-06T09:17:34.855872","TLE_LINE2":"2 48462  53.0554  11.2764 0001558  68.1736 291.9419 15.06404603 54989","ELEMENT_SET_NO":"999","SITE":"AFETR","FILE":"3432208","OBJECT_TYPE":"PAYLOAD","MEAN_ANOMALY":"291.9419","MEAN_MOTION":"15.06404603","CENTER_NAME":"EARTH","ECCENTRICITY":"0.00015580","GP_ID":"202861086","SEMIMAJOR_AXIS":"6925.334","INCLINATION":"53.0554","PERIOD":"95.592","EPHEMERIS_TYPE":"0","LAUNCH_DATE":"2021-05-09","RA_OF_ASC_NODE":"11.2764","BSTAR":"-0.00003899100000","OBJECT_NAME":"STARLINK-2683","RCS_SIZE":"LARGE","CLASSIFICATION_TYPE":"U","PERIAPSIS":"546.120","ARG_OF_PERICENTER":"68.1736","TLE_LINE1":"1 48462U 21040AL  22126.38720898 -.00000862  00000-0 -38991-4 0  9991","MEAN_MOTION_DDOT":"0.0000000000000","NORAD_CAT_ID":"48462","MEAN_MOTION_DOT":"-0.00000862","OBJECT_ID":"2021-040AL","APOAPSIS":"548.278","TIME_SYSTEM":"UTC","MEAN_ELEMENT_THEORY":"SGP4","REV_AT_EPOCH":"5498","DECAY_DATE":null,"COUNTRY_CODE":"US"},{"ELEMENT_SET_NO":"999","SITE":"AFETR","EPOCH":"2022-05-06T19:38:34.785888","TLE_LINE2":"2 48463  53.0562   9.3615 0001473  59.2573 300.8561 15.06404462 56329","REF_FRAME":"TEME","FILE":"3432242","MEAN_ANOMALY":"300.8561","OBJECT_TYPE":"PAYLOAD","SEMIMAJOR_AXIS":"6925.335","GP_ID":"202864872","ECCENTRICITY":"0.00014730","CENTER_NAME":"EARTH","MEAN_MOTION":"15.06404462","EPHEMERIS_TYPE":"0","PERIOD":"95.592","INCLINATION":"53.0562","RCS_SIZE":"LARGE","CLASSIFICATION_TYPE":"U","OBJECT_NAME":"STARLINK-2689","BSTAR":"-0.00004240300000","RA_OF_ASC_NODE":"9.3615","LAUNCH_DATE":"2021-05-09","MEAN_ELEMENT_THEORY":"SGP4","TIME_SYSTEM":"UTC","APOAPSIS":"548.220","MEAN_MOTION_DDOT":"0.0000000000000","MEAN_MOTION_DOT":"-0.00000913","NORAD_CAT_ID":"48463","OBJECT_ID":"2021-040AM","TLE_LINE1":"1 48463U 21040AM  22126.81845817 -.00000913  00000-0 -42403-4 0  9999","ARG_OF_PERICENTER":"59.2573","PERIAPSIS":"546.180","COUNTRY_CODE":"US","DECAY_DATE":null,"REV_AT_EPOCH":"5632"},{"ARG_OF_PERICENTER":"77.0308","PERIAPSIS":"546.309","MEAN_ELEMENT_THEORY":"SGP4","APOAPSIS":"548.106","TIME_SYSTEM":"UTC","MEAN_MOTION_DDOT":"0.0000000000000","NORAD_CAT_ID":"48464","MEAN_MOTION_DOT":"-0.00000643","OBJECT_ID":"2021-040AN","TLE_LINE1":"1 48464U 21040AN  22126.86363211 -.00000643  00000-0 -24301-4 0  9995","REV_AT_EPOCH":"5633","COUNTRY_CODE":"US","DECAY_DATE":null,"EPHEMERIS_TYPE":"0","PERIOD":"95.592","INCLINATION":"53.0559","BSTAR":"-0.00002430100000","RA_OF_ASC_NODE":"9.1560","LAUNCH_DATE":"2021-05-09","RCS_SIZE":"MEDIUM","CLASSIFICATION_TYPE":"U","OBJECT_NAME":"STARLINK-2686","OBJECT_TYPE":"PAYLOAD","MEAN_ANOMALY":"283.0826","CENTER_NAME":"EARTH","MEAN_MOTION":"15.06401997","SEMIMAJOR_AXIS":"6925.342","GP_ID":"202872235","ECCENTRICITY":"0.00012970","ELEMENT_SET_NO":"999","SITE":"AFETR","EPOCH":"2022-05-06T20:43:37.814304","TLE_LINE2":"2 48464  53.0559   9.1560 0001297  77.0308 283.0826 15.06401997 56338","REF_FRAME":"TEME","FILE":"3432559"},{"CENTER_NAME":"EARTH","MEAN_MOTION":"15.06407374","GP_ID":"202872744","ECCENTRICITY":"0.00014120","SEMIMAJOR_AXIS":"6925.326","OBJECT_TYPE":"PAYLOAD","MEAN_ANOMALY":"286.8603","FILE":"3432559","REF_FRAME":"TEME","ELEMENT_SET_NO":"999","SITE":"AFETR","EPOCH":"2022-05-06T19:24:00.856800","TLE_LINE2":"2 48465  53.0539   9.4072 0001412  73.2541 286.8603 15.06407374 56322","REV_AT_EPOCH":"5632","COUNTRY_CODE":"US","DECAY_DATE":null,"PERIAPSIS":"546.213","ARG_OF_PERICENTER":"73.2541","NORAD_CAT_ID":"48465","MEAN_MOTION_DDOT":"0.0000000000000","MEAN_MOTION_DOT":"0.00000839","OBJECT_ID":"2021-040AP","TLE_LINE1":"1 48465U 21040AP  22126.80834325  .00000839  00000-0  75171-4 0  9995","MEAN_ELEMENT_THEORY":"SGP4","TIME_SYSTEM":"UTC","APOAPSIS":"548.169","RA_OF_ASC_NODE":"9.4072","LAUNCH_DATE":"2021-05-09","BSTAR":"0.00007517100000","OBJECT_NAME":"STARLINK-2681","RCS_SIZE":"LARGE","CLASSIFICATION_TYPE":"U","INCLINATION":"53.0539","EPHEMERIS_TYPE":"0","PERIOD":"95.592"},{"GP_ID":"202861587","ECCENTRICITY":"0.00015200","SEMIMAJOR_AXIS":"6925.347","CENTER_NAME":"EARTH","MEAN_MOTION":"15.06400576","MEAN_ANOMALY":"294.9997","OBJECT_TYPE":"PAYLOAD","FILE":"3432208","REF_FRAME":"TEME","ELEMENT_SET_NO":"999","SITE":"AFETR","EPOCH":"2022-05-06T09:29:33.204480","TLE_LINE2":"2 48466  53.0548  11.2630 0001520  65.1149 294.9997 15.06400576 54992","COUNTRY_CODE":"US","DECAY_DATE":null,"REV_AT_EPOCH":"5499","MEAN_MOTION_DOT":"0.00000820","MEAN_MOTION_DDOT":"0.0000000000000","NORAD_CAT_ID":"48466","OBJECT_ID":"2021-040AQ","TLE_LINE1":"1 48466U 21040AQ  22126.39552320  .00000820  00000-0  73954-4 0  9999","MEAN_ELEMENT_THEORY":"SGP4","APOAPSIS":"548.264","TIME_SYSTEM":"UTC","PERIAPSIS":"546.159","ARG_OF_PERICENTER":"65.1149","OBJECT_NAME":"STARLINK-2687","RCS_SIZE":"LARGE","CLASSIFICATION_TYPE":"U","RA_OF_ASC_NODE":"11.2630","LAUNCH_DATE":"2021-05-09","BSTAR":"0.00007395400000","INCLINATION":"53.0548","EPHEMERIS_TYPE":"0","PERIOD":"95.592"},{"ARG_OF_PERICENTER":"66.7271","PERIAPSIS":"546.090","MEAN_ELEMENT_THEORY":"SGP4","APOAPSIS":"548.332","TIME_SYSTEM":"UTC","MEAN_MOTION_DOT":"0.00001207","MEAN_MOTION_DDOT":"0.0000000000000","NORAD_CAT_ID":"48467","OBJECT_ID":"2021-040AR","TLE_LINE1":"1 48467U 21040AR  22126.81939866  .00001207  00000-0  99887-4 0  9994","REV_AT_EPOCH":"5632","COUNTRY_CODE":"US","DECAY_DATE":null,"EPHEMERIS_TYPE":"0","PERIOD":"95.592","INCLINATION":"53.0554","BSTAR":"0.00009988700000","RA_OF_ASC_NODE":"9.3543","LAUNCH_DATE":"2021-05-09","RCS_SIZE":"LARGE","CLASSIFICATION_TYPE":"U","OBJECT_NAME":"STARLINK-2659","OBJECT_TYPE":"PAYLOAD","MEAN_ANOMALY":"293.3889","CENTER_NAME":"EARTH","MEAN_MOTION":"15.06400921","SEMIMAJOR_AXIS":"6925.346","GP_ID":"202872271","ECCENTRICITY":"0.00016190","ELEMENT_SET_NO":"999","SITE":"AFETR","TLE_LINE2":"2 48467  53.0554   9.3543 0001619  66.7271 293.3889 15.06400921 56329","EPOCH":"2022-05-06T19:39:56.044224","REF_FRAME":"TEME","FILE":"3432553"},{"OBJECT_TYPE":"PAYLOAD","MEAN_ANOMALY":"290.2924","CENTER_NAME":"EARTH","MEAN_MOTION":"15.06398640","GP_ID":"202861560","ECCENTRICITY":"0.00020290","SEMIMAJOR_AXIS":"6925.353","REF_FRAME":"TEME","ELEMENT_SET_NO":"999","SITE":"AFETR","EPOCH":"2022-05-06T04:53:33.072864","TLE_LINE2":"2 48468  53.0575  12.1143 0002029  69.8283 290.2924 15.06398640 54962","FILE":"3432208","PERIAPSIS":"545.813","ARG_OF_PERICENTER":"69.8283","NORAD_CAT_ID":"48468","MEAN_MOTION_DDOT":"0.0000000000000","MEAN_MOTION_DOT":"-0.00000289","OBJECT_ID":"2021-040AS","TLE_LINE1":"1 48468U 21040AS  22126.20385501 -.00000289  00000-0 -50335-6 0  9997","MEAN_ELEMENT_THEORY":"SGP4","TIME_SYSTEM":"UTC","APOAPSIS":"548.623","REV_AT_EPOCH":"5496","COUNTRY_CODE":"US","DECAY_DATE":null,"INCLINATION":"53.0575","EPHEMERIS_TYPE":"0","PERIOD":"95.592","RA_OF_ASC_NODE":"12.1143","LAUNCH_DATE":"2021-05-09","BSTAR":"-0.00000050335000","OBJECT_NAME":"STARLINK-2685","CLASSIFICATION_TYPE":"U","RCS_SIZE":"LARGE"},{"REF_FRAME":"TEME","TLE_LINE2":"2 48469  53.0545  13.2468 0001509  97.9783 262.1377 15.06411507 56196","EPOCH":"2022-05-05T22:52:37.218720","SITE":"AFETR","ELEMENT_SET_NO":"999","FILE":"3432553","MEAN_ANOMALY":"262.1377","OBJECT_TYPE":"PAYLOAD","ECCENTRICITY":"0.00015090","GP_ID":"202872275","SEMIMAJOR_AXIS":"6925.313","MEAN_MOTION":"15.06411507","CENTER_NAME":"EARTH","INCLINATION":"53.0545","PERIOD":"95.591","EPHEMERIS_TYPE":"0","OBJECT_NAME":"STARLINK-2661","RCS_SIZE":"LARGE","CLASSIFICATION_TYPE":"U","LAUNCH_DATE":"2021-05-09","RA_OF_ASC_NODE":"13.2468","BSTAR":"0.00007676200000","TLE_LINE1":"1 48469U 21040AT  22125.95320855  .00000862  00000-0  76762-4 0  9995","NORAD_CAT_ID":"48469","MEAN_MOTION_DDOT":"0.0000000000000","MEAN_MOTION_DOT":"0.00000862","OBJECT_ID":"2021-040AT","APOAPSIS":"548.223","TIME_SYSTEM":"UTC","MEAN_ELEMENT_THEORY":"SGP4","PERIAPSIS":"546.133","ARG_OF_PERICENTER":"97.9783","DECAY_DATE":null,"COUNTRY_CODE":"US","REV_AT_EPOCH":"5619"}];
